0 SCOUT D-1 DEB
1 12858U 77106C   13280.58494027  .00000118  00000-0  17338-3 0  1928
2 12858 089.4984 221.8796 0019213 131.6722 295.1835 13.48276008667147
0 SCOUT D-1 DEB
1 12858U 77106C   13282.58816104  .00000100  00000-0  14334-3 0  1939
2 12858 089.4986 221.7786 0019316 126.4393 297.8667 13.48276802667411
0 SCOUT D-1 DEB
1 12858U 77106C   13286.81605701  .00000107  00000-0  15579-3 0  1959
2 12858 089.4996 221.5656 0019477 115.4041 298.0753 13.48277690667989
0 SCOUT D-1 DEB
1 12858U 77106C   13289.56354875  .00000144  00000-0  21518-3 0  1969
2 12858 089.5000 221.4273 0019571 108.2600 313.0819 13.48278060668351
0 SCOUT D-1 DEB
1 12858U 77106C   13292.08702698  .00000153  00000-0  22987-3 0  1972
2 12858 089.5001 221.3009 0019599 101.7115 320.8253 13.48278615668698
0 SCOUT D-1 DEB
1 12858U 77106C   13294.25807153  .00000149  00000-0  22250-3 0  1984
2 12858 089.5000 221.1919 0019590 096.0977 058.0094 13.48279365668986
